{"fetched_at":"2026-07-15T17:46:49.740Z","source":"https://celestrak.org/NORAD/elements/gp.php?GROUP=qianfan&FORMAT=JSON","constellation":"qianfan","records":[{"OBJECT_NAME":"QIANFAN-1","OBJECT_ID":"2024-140A","EPOCH":"2026-07-15T04:18:45.368928","CLASSIFICATION_TYPE":"U","MEAN_MOTION":13.51020242,"ECCENTRICITY":0.001562,"INCLINATION":88.9733,"RA_OF_ASC_NODE":277.0282,"ARG_OF_PERICENTER":320.5435,"MEAN_ANOMALY":39.4578,"EPHEMERIS_TYPE":0,"NORAD_CAT_ID":60379,"ELEMENT_SET_NO":999,"REV_AT_EPOCH":9630,"BSTAR":0.00015247,"MEAN_MOTION_DOT":0.0000011,"MEAN_MOTION_DDOT":0},{"OBJECT_NAME":"QIANFAN-2","OBJECT_ID":"2024-140B","EPOCH":"2026-07-15T05:00:20.754720","CLASSIFICATION_TYPE":"U","MEAN_MOTION":13.51016031,"ECCENTRICITY":0.0010397,"INCLINATION":88.972,"RA_OF_ASC_NODE":276.8354,"ARG_OF_PERICENTER":289.4428,"MEAN_ANOMALY":70.5599,"EPHEMERIS_TYPE":0,"NORAD_CAT_ID":60380,"ELEMENT_SET_NO":999,"REV_AT_EPOCH":9636,"BSTAR":0.00014195,"MEAN_MOTION_DOT":0.00000104,"MEAN_MOTION_DDOT":0},{"OBJECT_NAME":"QIANFAN-3","OBJECT_ID":"2024-140C","EPOCH":"2026-07-15T05:12:08.559072","CLASSIFICATION_TYPE":"U","MEAN_MOTION":13.51017061,"ECCENTRICITY":0.0011677,"INCLINATION":88.9712,"RA_OF_ASC_NODE":276.9509,"ARG_OF_PERICENTER":304.3,"MEAN_ANOMALY":55.7045,"EPHEMERIS_TYPE":0,"NORAD_CAT_ID":60381,"ELEMENT_SET_NO":999,"REV_AT_EPOCH":9627,"BSTAR":0.00014668,"MEAN_MOTION_DOT":0.00000107,"MEAN_MOTION_DDOT":0},{"OBJECT_NAME":"QIANFAN-4","OBJECT_ID":"2024-140D","EPOCH":"2026-07-15T04:36:28.859616","CLASSIFICATION_TYPE":"U","MEAN_MOTION":13.51020103,"ECCENTRICITY":0.0010653,"INCLINATION":88.9737,"RA_OF_ASC_NODE":276.9051,"ARG_OF_PERICENTER":292.6329,"MEAN_ANOMALY":67.3695,"EPHEMERIS_TYPE":0,"NORAD_CAT_ID":60382,"ELEMENT_SET_NO":999,"REV_AT_EPOCH":9639,"BSTAR":0.00015303,"MEAN_MOTION_DOT":0.00000111,"MEAN_MOTION_DDOT":0},{"OBJECT_NAME":"QIANFAN-5","OBJECT_ID":"2024-140E","EPOCH":"2026-07-15T04:01:01.594848","CLASSIFICATION_TYPE":"U","MEAN_MOTION":13.51010718,"ECCENTRICITY":0.0013174,"INCLINATION":88.9712,"RA_OF_ASC_NODE":276.9807,"ARG_OF_PERICENTER":317.183,"MEAN_ANOMALY":42.8294,"EPHEMERIS_TYPE":0,"NORAD_CAT_ID":60383,"ELEMENT_SET_NO":999,"REV_AT_EPOCH":9625,"BSTAR":0.00013459,"MEAN_MOTION_DOT":9.9e-7,"MEAN_MOTION_DDOT":0},{"OBJECT_NAME":"QIANFAN-6","OBJECT_ID":"2024-140F","EPOCH":"2026-07-15T04:30:34.478784","CLASSIFICATION_TYPE":"U","MEAN_MOTION":13.51018907,"ECCENTRICITY":0.0010853,"INCLINATION":88.9739,"RA_OF_ASC_NODE":276.7829,"ARG_OF_PERICENTER":299.8219,"MEAN_ANOMALY":60.1853,"EPHEMERIS_TYPE":0,"NORAD_CAT_ID":60384,"ELEMENT_SET_NO":999,"REV_AT_EPOCH":9645,"BSTAR":0.00014084,"MEAN_MOTION_DOT":0.00000103,"MEAN_MOTION_DDOT":0},{"OBJECT_NAME":"QIANFAN-7","OBJECT_ID":"2024-140G","EPOCH":"2026-07-15T04:49:59.118816","CLASSIFICATION_TYPE":"U","MEAN_MOTION":14.27864578,"ECCENTRICITY":0.0017058,"INCLINATION":88.9768,"RA_OF_ASC_NODE":268.4835,"ARG_OF_PERICENTER":61.5556,"MEAN_ANOMALY":298.7355,"EPHEMERIS_TYPE":0,"NORAD_CAT_ID":60385,"ELEMENT_SET_NO":999,"REV_AT_EPOCH":10099,"BSTAR":0.00011607,"MEAN_MOTION_DOT":0.00000302,"MEAN_MOTION_DDOT":0},{"OBJECT_NAME":"QIANFAN-8","OBJECT_ID":"2024-140H","EPOCH":"2026-07-15T04:42:29.909664","CLASSIFICATION_TYPE":"U","MEAN_MOTION":13.51015249,"ECCENTRICITY":0.0014338,"INCLINATION":88.974,"RA_OF_ASC_NODE":277.0223,"ARG_OF_PERICENTER":301.4828,"MEAN_ANOMALY":58.4922,"EPHEMERIS_TYPE":0,"NORAD_CAT_ID":60386,"ELEMENT_SET_NO":999,"REV_AT_EPOCH":9630,"BSTAR":0.00012458,"MEAN_MOTION_DOT":9.2e-7,"MEAN_MOTION_DDOT":0},{"OBJECT_NAME":"QIANFAN-9","OBJECT_ID":"2024-140J","EPOCH":"2026-07-15T04:06:48.852864","CLASSIFICATION_TYPE":"U","MEAN_MOTION":13.510209,"ECCENTRICITY":0.0014014,"INCLINATION":88.9738,"RA_OF_ASC_NODE":277.0958,"ARG_OF_PERICENTER":301.3236,"MEAN_ANOMALY":58.6543,"EPHEMERIS_TYPE":0,"NORAD_CAT_ID":60387,"ELEMENT_SET_NO":999,"REV_AT_EPOCH":9628,"BSTAR":0.00013473,"MEAN_MOTION_DOT":9.9e-7,"MEAN_MOTION_DDOT":0},{"OBJECT_NAME":"QIANFAN-10","OBJECT_ID":"2024-140K","EPOCH":"2026-07-15T04:12:45.048960","CLASSIFICATION_TYPE":"U","MEAN_MOTION":13.51022121,"ECCENTRICITY":0.0012335,"INCLINATION":88.9749,"RA_OF_ASC_NODE":276.4649,"ARG_OF_PERICENTER":274.7703,"MEAN_ANOMALY":85.204,"EPHEMERIS_TYPE":0,"NORAD_CAT_ID":60388,"ELEMENT_SET_NO":999,"REV_AT_EPOCH":9641,"BSTAR":0.00015874,"MEAN_MOTION_DOT":0.00000114,"MEAN_MOTION_DDOT":0},{"OBJECT_NAME":"QIANFAN-11","OBJECT_ID":"2024-140L","EPOCH":"2026-07-15T05:06:08.850816","CLASSIFICATION_TYPE":"U","MEAN_MOTION":13.51016012,"ECCENTRICITY":0.0012054,"INCLINATION":88.9673,"RA_OF_ASC_NODE":276.8869,"ARG_OF_PERICENTER":301.4106,"MEAN_ANOMALY":58.5866,"EPHEMERIS_TYPE":0,"NORAD_CAT_ID":60389,"ELEMENT_SET_NO":999,"REV_AT_EPOCH":9607,"BSTAR":0.00013129,"MEAN_MOTION_DOT":9.7e-7,"MEAN_MOTION_DDOT":0},{"OBJECT_NAME":"QIANFAN-12","OBJECT_ID":"2024-140M","EPOCH":"2026-07-15T03:49:13.101888","CLASSIFICATION_TYPE":"U","MEAN_MOTION":13.5101818,"ECCENTRICITY":0.0011028,"INCLINATION":88.9717,"RA_OF_ASC_NODE":277.0293,"ARG_OF_PERICENTER":311.7773,"MEAN_ANOMALY":48.2435,"EPHEMERIS_TYPE":0,"NORAD_CAT_ID":60390,"ELEMENT_SET_NO":999,"REV_AT_EPOCH":9619,"BSTAR":0.00011692,"MEAN_MOTION_DOT":8.7e-7,"MEAN_MOTION_DDOT":0},{"OBJECT_NAME":"QIANFAN-13","OBJECT_ID":"2024-140N","EPOCH":"2026-07-15T04:54:20.071872","CLASSIFICATION_TYPE":"U","MEAN_MOTION":13.51018268,"ECCENTRICITY":0.0010913,"INCLINATION":88.9729,"RA_OF_ASC_NODE":277.1505,"ARG_OF_PERICENTER":314.8732,"MEAN_ANOMALY":45.1532,"EPHEMERIS_TYPE":0,"NORAD_CAT_ID":60391,"ELEMENT_SET_NO":999,"REV_AT_EPOCH":9622,"BSTAR":0.00012454,"MEAN_MOTION_DOT":9.2e-7,"MEAN_MOTION_DDOT":0},{"OBJECT_NAME":"QIANFAN-14","OBJECT_ID":"2024-140P","EPOCH":"2026-07-15T05:29:59.404128","CLASSIFICATION_TYPE":"U","MEAN_MOTION":13.51011815,"ECCENTRICITY":0.0014573,"INCLINATION":88.9708,"RA_OF_ASC_NODE":277.0002,"ARG_OF_PERICENTER":313.1027,"MEAN_ANOMALY":46.8904,"EPHEMERIS_TYPE":0,"NORAD_CAT_ID":60392,"ELEMENT_SET_NO":999,"REV_AT_EPOCH":9623,"BSTAR":0.00013271,"MEAN_MOTION_DOT":9.8e-7,"MEAN_MOTION_DDOT":0},{"OBJECT_NAME":"QIANFAN-15","OBJECT_ID":"2024-140Q","EPOCH":"2026-07-15T03:55:05.791008","CLASSIFICATION_TYPE":"U","MEAN_MOTION":13.51012265,"ECCENTRICITY":0.0010133,"INCLINATION":88.9731,"RA_OF_ASC_NODE":277.0145,"ARG_OF_PERICENTER":298.6441,"MEAN_ANOMALY":61.369,"EPHEMERIS_TYPE":0,"NORAD_CAT_ID":60393,"ELEMENT_SET_NO":999,"REV_AT_EPOCH":9621,"BSTAR":0.00012243,"MEAN_MOTION_DOT":9.1e-7,"MEAN_MOTION_DDOT":0},{"OBJECT_NAME":"QIANFAN-16","OBJECT_ID":"2024-140R","EPOCH":"2026-07-15T05:24:01.158624","CLASSIFICATION_TYPE":"U","MEAN_MOTION":13.51020234,"ECCENTRICITY":0.0012633,"INCLINATION":88.9734,"RA_OF_ASC_NODE":277.1343,"ARG_OF_PERICENTER":318.4244,"MEAN_ANOMALY":41.5946,"EPHEMERIS_TYPE":0,"NORAD_CAT_ID":60394,"ELEMENT_SET_NO":999,"REV_AT_EPOCH":9613,"BSTAR":0.0001389,"MEAN_MOTION_DOT":0.00000102,"MEAN_MOTION_DDOT":0}]}
