QIANFAN-1               
1 60379U 24140A   26196.17969177  .00000110  00000+0  15247-3 0  9990
2 60379  88.9733 277.0282 0015620 320.5435  39.4578 13.51020242 96303
QIANFAN-2               
1 60380U 24140B   26196.20857355  .00000104  00000+0  14195-3 0  9994
2 60380  88.9720 276.8354 0010397 289.4428  70.5599 13.51016031 96365
QIANFAN-3               
1 60381U 24140C   26196.21676573  .00000107  00000+0  14668-3 0  9995
2 60381  88.9712 276.9509 0011677 304.3000  55.7045 13.51017061 96270
QIANFAN-4               
1 60382U 24140D   26196.19200069  .00000111  00000+0  15303-3 0  9998
2 60382  88.9737 276.9051 0010653 292.6329  67.3695 13.51020103 96390
QIANFAN-5               
1 60383U 24140E   26196.16737957  .00000099  00000+0  13459-3 0  9992
2 60383  88.9712 276.9807 0013174 317.1830  42.8294 13.51010718 96253
QIANFAN-6               
1 60384U 24140F   26196.18789906  .00000103  00000+0  14084-3 0  9997
2 60384  88.9739 276.7829 0010853 299.8219  60.1853 13.51018907 96457
QIANFAN-7               
1 60385U 24140G   26196.20137869  .00000302  00000+0  11607-3 0  9995
2 60385  88.9768 268.4835 0017058  61.5556 298.7355 14.27864578100995
QIANFAN-8               
1 60386U 24140H   26196.19617951  .00000092  00000+0  12458-3 0  9990
2 60386  88.9740 277.0223 0014338 301.4828  58.4922 13.51015249 96308
QIANFAN-9               
1 60387U 24140J   26196.17139876  .00000099  00000+0  13473-3 0  9999
2 60387  88.9738 277.0958 0014014 301.3236  58.6543 13.51020900 96282
QIANFAN-10              
1 60388U 24140K   26196.17552140  .00000114  00000+0  15874-3 0  9998
2 60388  88.9749 276.4649 0012335 274.7703  85.2040 13.51022121 96411
QIANFAN-11              
1 60389U 24140L   26196.21260244  .00000097  00000+0  13129-3 0  9996
2 60389  88.9673 276.8869 0012054 301.4106  58.5866 13.51016012 96072
QIANFAN-12              
1 60390U 24140M   26196.15917942  .00000087  00000+0  11692-3 0  9997
2 60390  88.9717 277.0293 0011028 311.7773  48.2435 13.51018180 96190
QIANFAN-13              
1 60391U 24140N   26196.20439898  .00000092  00000+0  12454-3 0  9996
2 60391  88.9729 277.1505 0010913 314.8732  45.1532 13.51018268 96227
QIANFAN-14              
1 60392U 24140P   26196.22915977  .00000098  00000+0  13271-3 0  9990
2 60392  88.9708 277.0002 0014573 313.1027  46.8904 13.51011815 96234
QIANFAN-15              
1 60393U 24140Q   26196.16326147  .00000091  00000+0  12243-3 0  9990
2 60393  88.9731 277.0145 0010133 298.6441  61.3690 13.51012265 96216
QIANFAN-16              
1 60394U 24140R   26196.22501341  .00000102  00000+0  13890-3 0  9991
2 60394  88.9734 277.1343 0012633 318.4244  41.5946 13.51020234 96130
